XRISM                   
1 57800U 23137A   23363.48473490  .00005138  00000+0  40656-3 0  9992
2 57800  31.0054  17.3304 0009904 316.1364  43.8484 14.99076012 17030
